CCSDS_OMM_VERS = 2.0
CREATION_DATE  = 
ORIGINATOR     = 

OBJECT_NAME    = STARLINK-35979
OBJECT_ID      = 2025-278U
CENTER_NAME    = EARTH
REF_FRAME      = TEME
TIME_SYSTEM    = UTC
MEAN_ELEMENT_THEORY = SGP/SGP4

EPOCH          = 2025-12-21T20:00:01.999008
MEAN_MOTION    = 15.56615915
ECCENTRICITY   = .000125
INCLINATION    = 42.9986
RA_OF_ASC_NODE = 196.9896
ARG_OF_PERICENTER = 265.3349
MEAN_ANOMALY   = 258.7792

EPHEMERIS_TYPE = 0
CLASSIFICATION_TYPE = U
NORAD_CAT_ID   = 66809
ELEMENT_SET_NO = 999
REV_AT_EPOCH   = 442
BSTAR          = -.31458E-1
MEAN_MOTION_DOT = -.2052008E-1
MEAN_MOTION_DDOT = 0

CCSDS_OMM_VERS = 2.0
CREATION_DATE  = 
ORIGINATOR     = 

OBJECT_NAME    = STARLINK-36046
OBJECT_ID      = 2025-278V
CENTER_NAME    = EARTH
REF_FRAME      = TEME
TIME_SYSTEM    = UTC
MEAN_ELEMENT_THEORY = SGP/SGP4

EPOCH          = 2025-12-21T20:00:01.999008
MEAN_MOTION    = 15.56615745
ECCENTRICITY   = .0001205
INCLINATION    = 42.9989
RA_OF_ASC_NODE = 197.0006
ARG_OF_PERICENTER = 272.1278
MEAN_ANOMALY   = 248.1437

EPHEMERIS_TYPE = 0
CLASSIFICATION_TYPE = U
NORAD_CAT_ID   = 66810
ELEMENT_SET_NO = 999
REV_AT_EPOCH   = 419
BSTAR          = -.31295E-1
MEAN_MOTION_DOT = -.2042503E-1
MEAN_MOTION_DDOT = 0

CCSDS_OMM_VERS = 2.0
CREATION_DATE  = 
ORIGINATOR     = 

OBJECT_NAME    = STARLINK-36045
OBJECT_ID      = 2025-278W
CENTER_NAME    = EARTH
REF_FRAME      = TEME
TIME_SYSTEM    = UTC
MEAN_ELEMENT_THEORY = SGP/SGP4

EPOCH          = 2025-12-21T20:00:01.999008
MEAN_MOTION    = 15.56607536
ECCENTRICITY   = .0001299
INCLINATION    = 42.9989
RA_OF_ASC_NODE = 196.9955
ARG_OF_PERICENTER = 265.5895
MEAN_ANOMALY   = 256.6088

EPHEMERIS_TYPE = 0
CLASSIFICATION_TYPE = U
NORAD_CAT_ID   = 66811
ELEMENT_SET_NO = 999
REV_AT_EPOCH   = 442
BSTAR          = -.3125E-1
MEAN_MOTION_DOT = -.2039385E-1
MEAN_MOTION_DDOT = 0

CCSDS_OMM_VERS = 2.0
CREATION_DATE  = 
ORIGINATOR     = 

OBJECT_NAME    = STARLINK-36054
OBJECT_ID      = 2025-278X
CENTER_NAME    = EARTH
REF_FRAME      = TEME
TIME_SYSTEM    = UTC
MEAN_ELEMENT_THEORY = SGP/SGP4

EPOCH          = 2025-12-21T20:00:01.999008
MEAN_MOTION    = 15.56614569
ECCENTRICITY   = .0001142
INCLINATION    = 42.9985
RA_OF_ASC_NODE = 196.9860
ARG_OF_PERICENTER = 268.7834
MEAN_ANOMALY   = 257.2467

EPHEMERIS_TYPE = 0
CLASSIFICATION_TYPE = U
NORAD_CAT_ID   = 66812
ELEMENT_SET_NO = 999
REV_AT_EPOCH   = 442
BSTAR          = -.314E-1
MEAN_MOTION_DOT = -.2048478E-1
MEAN_MOTION_DDOT = 0

CCSDS_OMM_VERS = 2.0
CREATION_DATE  = 
ORIGINATOR     = 

OBJECT_NAME    = STARLINK-36042
OBJECT_ID      = 2025-278Y
CENTER_NAME    = EARTH
REF_FRAME      = TEME
TIME_SYSTEM    = UTC
MEAN_ELEMENT_THEORY = SGP/SGP4

EPOCH          = 2025-12-21T20:00:01.999008
MEAN_MOTION    = 15.56611309
ECCENTRICITY   = .0001052
INCLINATION    = 42.9987
RA_OF_ASC_NODE = 196.9804
ARG_OF_PERICENTER = 272.4436
MEAN_ANOMALY   = 255.5059

EPHEMERIS_TYPE = 0
CLASSIFICATION_TYPE = U
NORAD_CAT_ID   = 66813
ELEMENT_SET_NO = 999
REV_AT_EPOCH   = 442
BSTAR          = -.31331E-1
MEAN_MOTION_DOT = -.2044183E-1
MEAN_MOTION_DDOT = 0

CCSDS_OMM_VERS = 2.0
CREATION_DATE  = 
ORIGINATOR     = 

OBJECT_NAME    = STARLINK-35984
OBJECT_ID      = 2025-278Z
CENTER_NAME    = EARTH
REF_FRAME      = TEME
TIME_SYSTEM    = UTC
MEAN_ELEMENT_THEORY = SGP/SGP4

EPOCH          = 2025-12-21T20:00:01.999008
MEAN_MOTION    = 15.56607420
ECCENTRICITY   = .0001272
INCLINATION    = 42.9993
RA_OF_ASC_NODE = 196.9511
ARG_OF_PERICENTER = 265.2746
MEAN_ANOMALY   = 274.1767

EPHEMERIS_TYPE = 0
CLASSIFICATION_TYPE = U
NORAD_CAT_ID   = 66814
ELEMENT_SET_NO = 999
REV_AT_EPOCH   = 450
BSTAR          = -.3122E-1
MEAN_MOTION_DOT = -.2037556E-1
MEAN_MOTION_DDOT = 0

CCSDS_OMM_VERS = 2.0
CREATION_DATE  = 
ORIGINATOR     = 

OBJECT_NAME    = STARLINK-35985
OBJECT_ID      = 2025-278AA
CENTER_NAME    = EARTH
REF_FRAME      = TEME
TIME_SYSTEM    = UTC
MEAN_ELEMENT_THEORY = SGP/SGP4

EPOCH          = 2025-12-21T20:00:01.999008
MEAN_MOTION    = 15.56609427
ECCENTRICITY   = .0001291
INCLINATION    = 42.9992
RA_OF_ASC_NODE = 196.9557
ARG_OF_PERICENTER = 265.4097
MEAN_ANOMALY   = 272.1242

EPHEMERIS_TYPE = 0
CLASSIFICATION_TYPE = U
NORAD_CAT_ID   = 66815
ELEMENT_SET_NO = 999
REV_AT_EPOCH   = 450
BSTAR          = -.31283E-1
MEAN_MOTION_DOT = -.2041389E-1
MEAN_MOTION_DDOT = 0

CCSDS_OMM_VERS = 2.0
CREATION_DATE  = 
ORIGINATOR     = 

OBJECT_NAME    = STARLINK-36098
OBJECT_ID      = 2025-278AB
CENTER_NAME    = EARTH
REF_FRAME      = TEME
TIME_SYSTEM    = UTC
MEAN_ELEMENT_THEORY = SGP/SGP4

EPOCH          = 2025-12-21T20:00:01.999008
MEAN_MOTION    = 15.56614795
ECCENTRICITY   = .0001101
INCLINATION    = 42.9988
RA_OF_ASC_NODE = 196.9756
ARG_OF_PERICENTER = 269.9678
MEAN_ANOMALY   = 259.8972

EPHEMERIS_TYPE = 0
CLASSIFICATION_TYPE = U
NORAD_CAT_ID   = 66816
ELEMENT_SET_NO = 999
REV_AT_EPOCH   = 426
BSTAR          = -.31413E-1
MEAN_MOTION_DOT = -.2049205E-1
MEAN_MOTION_DDOT = 0

CCSDS_OMM_VERS = 2.0
CREATION_DATE  = 
ORIGINATOR     = 

OBJECT_NAME    = STARLINK-35995
OBJECT_ID      = 2025-278AC
CENTER_NAME    = EARTH
REF_FRAME      = TEME
TIME_SYSTEM    = UTC
MEAN_ELEMENT_THEORY = SGP/SGP4

EPOCH          = 2025-12-21T20:00:01.999008
MEAN_MOTION    = 15.56614187
ECCENTRICITY   = .0001234
INCLINATION    = 42.9990
RA_OF_ASC_NODE = 196.9657
ARG_OF_PERICENTER = 267.5212
MEAN_ANOMALY   = 266.1765

EPHEMERIS_TYPE = 0
CLASSIFICATION_TYPE = U
NORAD_CAT_ID   = 66817
ELEMENT_SET_NO = 999
REV_AT_EPOCH   = 442
BSTAR          = -.31381E-1
MEAN_MOTION_DOT = -.2047401E-1
MEAN_MOTION_DDOT = 0

CCSDS_OMM_VERS = 2.0
CREATION_DATE  = 
ORIGINATOR     = 

OBJECT_NAME    = STARLINK-35994
OBJECT_ID      = 2025-278AD
CENTER_NAME    = EARTH
REF_FRAME      = TEME
TIME_SYSTEM    = UTC
MEAN_ELEMENT_THEORY = SGP/SGP4

EPOCH          = 2025-12-21T20:00:01.999008
MEAN_MOTION    = 15.56611924
ECCENTRICITY   = .0001295
INCLINATION    = 42.9988
RA_OF_ASC_NODE = 196.9711
ARG_OF_PERICENTER = 267.7697
MEAN_ANOMALY   = 264.0132

EPHEMERIS_TYPE = 0
CLASSIFICATION_TYPE = U
NORAD_CAT_ID   = 66818
ELEMENT_SET_NO = 999
REV_AT_EPOCH   = 442
BSTAR          = -.31359E-1
MEAN_MOTION_DOT = -.2046029E-1
MEAN_MOTION_DDOT = 0

CCSDS_OMM_VERS = 2.0
CREATION_DATE  = 
ORIGINATOR     = 

OBJECT_NAME    = STARLINK-35989
OBJECT_ID      = 2025-278AE
CENTER_NAME    = EARTH
REF_FRAME      = TEME
TIME_SYSTEM    = UTC
MEAN_ELEMENT_THEORY = SGP/SGP4

EPOCH          = 2025-12-21T20:00:01.999008
MEAN_MOTION    = 15.56610816
ECCENTRICITY   = .0001298
INCLINATION    = 42.9989
RA_OF_ASC_NODE = 196.9605
ARG_OF_PERICENTER = 269.7611
MEAN_ANOMALY   = 265.8564

EPHEMERIS_TYPE = 0
CLASSIFICATION_TYPE = U
NORAD_CAT_ID   = 66819
ELEMENT_SET_NO = 999
REV_AT_EPOCH   = 442
BSTAR          = -.31327E-1
MEAN_MOTION_DOT = -.2044053E-1
MEAN_MOTION_DDOT = 0

CCSDS_OMM_VERS = 2.0
CREATION_DATE  = 
ORIGINATOR     = 

OBJECT_NAME    = KOMPSAT-7
OBJECT_ID      = 2025-279A
CENTER_NAME    = EARTH
REF_FRAME      = TEME
TIME_SYSTEM    = UTC
MEAN_ELEMENT_THEORY = SGP/SGP4

EPOCH          = 2025-12-21T14:43:15.384864
MEAN_MOTION    = 15.00649834
ECCENTRICITY   = .00110253
INCLINATION    = 97.6444
RA_OF_ASC_NODE = 301.3241
ARG_OF_PERICENTER = 234.4274
MEAN_ANOMALY   = 125.5923

EPHEMERIS_TYPE = 0
CLASSIFICATION_TYPE = U
NORAD_CAT_ID   = 66820
ELEMENT_SET_NO = 999
REV_AT_EPOCH   = 298
BSTAR          = .20207224E-3
MEAN_MOTION_DOT = .2499E-4
MEAN_MOTION_DDOT = 0

