STARLINK-35979          
1 66809U 25278U   25355.83335647 -.02052008  00000+0 -31458-1 0  9992
2 66809  42.9986 196.9896 0001250 265.3349 258.7792 15.56615915  4421
STARLINK-36046          
1 66810U 25278V   25355.83335647 -.02042503  00000+0 -31295-1 0  9992
2 66810  42.9989 197.0006 0001205 272.1278 248.1437 15.56615745  4192
STARLINK-36045          
1 66811U 25278W   25355.83335647 -.02039385  00000+0 -31250-1 0  9998
2 66811  42.9989 196.9955 0001299 265.5895 256.6088 15.56607536  4429
STARLINK-36054          
1 66812U 25278X   25355.83335647 -.02048478  00000+0 -31400-1 0  9999
2 66812  42.9985 196.9860 0001142 268.7834 257.2467 15.56614569  4428
STARLINK-36042          
1 66813U 25278Y   25355.83335647 -.02044183  00000+0 -31331-1 0  9992
2 66813  42.9987 196.9804 0001052 272.4436 255.5059 15.56611309  4426
STARLINK-35984          
1 66814U 25278Z   25355.83335647 -.02037556  00000+0 -31220-1 0  9996
2 66814  42.9993 196.9511 0001272 265.2746 274.1767 15.56607420  4508
STARLINK-35985          
1 66815U 25278AA  25355.83335647 -.02041389  00000+0 -31283-1 0  9995
2 66815  42.9992 196.9557 0001291 265.4097 272.1242 15.56609427  4505
STARLINK-36098          
1 66816U 25278AB  25355.83335647 -.02049205  00000+0 -31413-1 0  9996
2 66816  42.9988 196.9756 0001101 269.9678 259.8972 15.56614795  4265
STARLINK-35995          
1 66817U 25278AC  25355.83335647 -.02047401  00000+0 -31381-1 0  9997
2 66817  42.9990 196.9657 0001234 267.5212 266.1765 15.56614187  4428
STARLINK-35994          
1 66818U 25278AD  25355.83335647 -.02046029  00000+0 -31359-1 0  9998
2 66818  42.9988 196.9711 0001295 267.7697 264.0132 15.56611924  4424
STARLINK-35989          
1 66819U 25278AE  25355.83335647 -.02044053  00000+0 -31327-1 0  9999
2 66819  42.9989 196.9605 0001298 269.7611 265.8564 15.56610816  4426
KOMPSAT-7               
1 66820U 25279A   25355.61337251  .00002499  00000+0  20207-3 0  9992
2 66820  97.6444 301.3241 0011025 234.4274 125.5923 15.00649834  2983
